KAITUO 1B               
1 40912U 15049P   18008.30154639  .00001001  00000-0  51927-4 0  9993
2 40912  97.4510  17.9363 0014486 202.7192 283.7104 15.18355992127406
TIANWANG 1C (TW-1C)     
1 40926U 15051B   18008.58413127  .00005778  00000-0  11786-3 0  9994
2 40926  97.2051  51.7701 0011781 133.4296 351.1185 15.46529842128623
TIANWANG 1B (TW-1B)     
1 40927U 15051C   18008.47816872  .00005389  00000-0  11454-3 0  9997
2 40927  97.2136  51.5835 0011336 144.3900 323.1120 15.45358915128531
TIANWANG 1A (TW-1A)     
1 40928U 15051D   18008.57513840  .00002358  00000-0  65641-4 0  9999
2 40928  97.2046  45.6442 0012215 169.0334 317.4055 15.37745577128248
LAPAN-A2 (IO-86)        
1 40931U 15052B   18007.70655553  .00000675  00000-0  49845-5 0  9995
2 40931   5.9957 214.4679 0013304 261.6256  98.2452 14.76561504123247
LQSAT                   
1 40958U 15057A   18008.39727506  .00000025  00000-0  11605-4 0  9994
2 40958  97.9594  84.9165 0019336 126.2448 234.0551 14.73010860121322
CHUBUSAT-2              
1 41338U 16012B   18008.06829773  .00000288  00000-0  15784-4 0  9995
2 41338  31.0027 250.8957 0014027 287.3132  72.5968 14.99901322103775
CHUBUSAT-3              
1 41339U 16012C   18008.03580864  .00000290  00000-0  15838-4 0  9991
2 41339  31.0088 249.9285 0013784 293.6651  66.2531 15.00094272103755
OUFTI-1                 
1 41458U 16025C   18008.34116577  .00001366  00000-0  76213-4 0  9996
2 41458  98.1599  62.5162 0170300 323.8317  35.1489 15.04134631 93409
E-ST@R-II               
1 41459U 16025D   18008.38819989  .00001045  00000-0  59722-4 0  9998
2 41459  98.1601  62.4637 0170997 324.3610  34.6290 15.03908557 93403
AAUSAT 4                
1 41460U 16025E   18008.37522701  .00000634  00000-0  37870-4 0  9995
2 41460  98.1528  62.7287 0163206 321.3986  37.5662 15.05131961 93443
NUSAT 1 (LO-87)         
1 41557U 16033B   18008.25904873  .00001081  00000-0  42369-4 0  9998
2 41557  97.4487  92.7163 0014070   9.9490 350.2025 15.27895340 89732
BEESAT-4                
1 41619U 16040W   18008.16413950  .00001150  00000-0  53912-4 0  9999
2 41619  97.4375  73.3854 0013329  74.1356 286.1348 15.21641915 73751
PRATHAM                 
1 41783U 16059A   18008.42859491  .00000048  00000-0  18764-4 0  9995
2 41783  98.1412  72.3845 0032605 235.8060 124.0050 14.62892959 68606
ALSAT 1N                
1 41789U 16059G   18008.45159382  .00000103  00000-0  28831-4 0  9994
2 41789  98.1422  73.3102 0027169 228.2576 131.6306 14.64117793 68647
NAYIF-1 (EO-88)         
1 42017U 17008BX  18007.90736171  .00001239  00000-0  54234-4 0  9997
2 42017  97.4703  73.7874 0005627 211.1544 148.9360 15.23922638 49656
LILACSAT-1              
1 42725U 98067ME  18008.48694638  .00012420  00000-0  14206-3 0  9990
2 42725  51.6381  88.2301 0005510 354.6408   5.4527 15.62567996 35499
MAX VALIER SAT          
1 42778U 17036P   18008.19713308  .00000780  00000-0  38308-4 0  9995
2 42778  97.4265  70.4022 0011162 269.6252  90.3704 15.20962356 30185
FOX-1B (AO-91)          
1 43017U 17073E   18007.75932843  .00000618  00000-0  53498-4 0  9998
2 43017  97.6964 305.7091 0261994  73.9044 289.0841 14.77827368  7418
